NORAD_CAT_ID,OBJECT_NAME,OBJECT_TYPE,EPOCH,MEAN_MOTION,ECCENTRICITY,INCLINATION,RA_OF_ASC_NODE,ARG_OF_PERICENTER,MEAN_ANOMALY,BSTAR,MEAN_MOTION_DOT,MEAN_MOTION_DDOT,TLE_LINE0,TLE_LINE1,TLE_LINE2,SEMIMAJOR_AXIS,PERIOD,APOGEE,PERIGEE,DECAYED
56473.0,STARLINK-5486,PAYLOAD,2023-05-29 14:00:01,15.69920028,0.0003338,69.9993,192.2768,272.344,135.2141,0.00019019,0.00022714,0.0,0 STARLINK-5486,1 56473U 23064AB  23149.58334491  .00022714  00000-0  19019-3 0  9995,2 56473  69.9993 192.2768 0003338 272.3440 135.2141 15.69920028  3334,6737.263,91.724,361.377,356.879,0.0
56473.0,STARLINK-5486,PAYLOAD,2023-05-29 19:54:55,15.69931287,0.0003316,69.9988,191.5837,268.9656,91.116,0.00014764,0.00017582,0.0,0 STARLINK-5486,1 56473U 23064AB  23149.82980914  .00017582  00000-0  14764-3 0  9998,2 56473  69.9988 191.5837 0003316 268.9656  91.1160 15.69931287  3029,6737.231,91.724,361.33,356.862,0.0
56473.0,STARLINK-5486,PAYLOAD,2023-05-30 02:01:56,15.69930341,0.000349,69.9987,190.8671,267.9199,92.1597,0.0001118,0.00013255,0.0,0 STARLINK-5486,1 56473U 23064AB  23150.08467625  .00013255  00000-0  11180-3 0  9999,2 56473  69.9987 190.8671 0003490 267.9199  92.1597 15.69930341  3418,6737.233,91.724,361.45,356.747,0.0
56473.0,STARLINK-5486,PAYLOAD,2023-05-30 12:44:11,15.69946352,0.00034,69.9988,189.6131,267.8476,92.233,0.00021566,0.00025822,0.0,0 STARLINK-5486,1 56473U 23064AB  23150.53068984  .00025822  00000-0  21566-3 0  9996,2 56473  69.9988 189.6131 0003400 267.8476  92.2330 15.69946352  3138,6737.187,91.723,361.343,356.762,0.0
56473.0,STARLINK-5486,PAYLOAD,2023-05-30 20:22:57,15.69943264,0.0003331,69.9989,188.718,267.507,92.5744,0.00021547,0.00025796,0.0,0 STARLINK-5486,1 56473U 23064AB  23150.84927499  .00025796  00000-0  21547-3 0  9994,2 56473  69.9989 188.7180 0003331 267.5070  92.5744 15.69943264  3189,6737.196,91.723,361.305,356.817,0.0
56473.0,STARLINK-5486,PAYLOAD,2023-05-31 02:29:57,15.69944802,0.0003317,69.9988,188.0011,267.7223,92.3593,0.00022475,0.00026921,0.0,0 STARLINK-5486,1 56473U 23064AB  23151.10414189  .00026921  00000-0  22475-3 0  9993,2 56473  69.9988 188.0011 0003317 267.7223  92.3593 15.69944802  3572,6737.192,91.723,361.292,356.822,0.0
56473.0,STARLINK-5486,PAYLOAD,2023-05-31 10:08:43,15.69941124,0.0003299,69.9988,187.1057,267.4139,92.6679,0.00011515,0.00013665,0.0,0 STARLINK-5486,1 56473U 23064AB  23151.42272405  .00013665  00000-0  11515-3 0  9995,2 56473  69.9988 187.1057 0003299 267.4139  92.6679 15.69941124  3622,6737.202,91.723,361.29,356.845,0.0
56473.0,STARLINK-5486,PAYLOAD,2023-05-31 11:40:28,15.69935107,0.0003288,69.9988,186.9264,268.2602,91.8217,8.1368e-05,9.587e-05,0.0,0 STARLINK-5486,1 56473U 23064AB  23151.48644173  .00009587  00000-0  81368-4 0  9998,2 56473  69.9988 186.9264 0003288 268.2602  91.8217 15.69935107  3286,6737.22,91.724,361.3,356.869,0.0
56473.0,STARLINK-5486,PAYLOAD,2023-05-31 14:43:58,15.69931938,0.000332,69.9987,186.5681,267.5331,92.5484,6.0019e-05,7.012e-05,0.0,0 STARLINK-5486,1 56473U 23064AB  23151.61387518  .00007012  00000-0  60019-4 0  9991,2 56473  69.9987 186.5681 0003320 267.5331  92.5484 15.69931938  3655,6737.229,91.724,361.33,356.857,0.0
56473.0,STARLINK-5486,PAYLOAD,2023-05-31 20:50:59,15.69927956,0.0003305,69.9987,185.8514,270.0657,90.016,4.0118e-05,4.614e-05,0.0,0 STARLINK-5486,1 56473U 23064AB  23151.86874231  .00004614  00000-0  40118-4 0  9994,2 56473  69.9987 185.8514 0003305 270.0657  90.0160 15.69927956  3340,6737.24,91.724,361.332,356.878,0.0
56473.0,STARLINK-5486,PAYLOAD,2023-06-01 02:57:59,15.69922881,0.0003312,69.9982,185.135,269.5446,90.5371,5.0363e-06,3.93e-06,0.0,0 STARLINK-5486,1 56473U 23064AB  23152.12361111  .00000393  00000-0  50363-5 0  9996,2 56473  69.9982 185.1350 0003312 269.5446  90.5371 15.69922881  3737,6737.255,91.724,361.351,356.888,0.0
56473.0,STARLINK-5486,PAYLOAD,2023-06-01 10:36:45,15.69932474,0.0003265,69.9978,184.2393,268.9571,91.125,2.5401e-05,2.844e-05,0.0,0 STARLINK-5486,1 56473U 23064AB  23152.44219021  .00002844  00000-0  25401-4 0  9990,2 56473  69.9978 184.2393 0003265 268.9571  91.1250 15.69932474  3437,6737.227,91.724,361.292,356.892,0.0
56473.0,STARLINK-5486,PAYLOAD,2023-06-01 19:47:16,15.69927453,0.0003225,69.9979,183.1642,272.6232,87.4595,3.2403e-06,1.77e-06,0.0,0 STARLINK-5486,1 56473U 23064AB  23152.82449262  .00000177  00000-0  32403-5 0  9992,2 56473  69.9979 183.1642 0003225 272.6232  87.4595 15.69927453  3492,6737.242,91.724,361.279,356.934,0.0
56473.0,STARLINK-5486,PAYLOAD,2023-06-02 09:33:02,15.69923147,0.0003261,69.9976,181.552,269.2285,90.8537,1.1039e-05,1.115e-05,0.0,0 STARLINK-5486,1 56473U 23064AB  23153.39794594  .00001115  00000-0  11039-4 0  9990,2 56473  69.9976 181.5520 0003261 269.2285  90.8537 15.69923147  3935,6737.254,91.724,361.316,356.922,0.0
56473.0,STARLINK-5486,PAYLOAD,2023-06-02 11:04:47,15.69927808,0.0003298,69.9975,181.373,269.5735,90.5083,1.5437e-05,1.644e-05,0.0,0 STARLINK-5486,1 56473U 23064AB  23153.46166014  .00001644  00000-0  15437-4 0  9991,2 56473  69.9975 181.3730 0003298 269.5735  90.5083 15.69927808  3591,6737.241,91.724,361.327,356.884,0.0
56473.0,STARLINK-5486,PAYLOAD,2023-06-03 10:01:04,15.69926999,0.0003141,69.9981,178.686,259.8612,100.223,2.5321e-05,2.833e-05,0.0,0 STARLINK-5486,1 56473U 23064AB  23154.41741218  .00002833  00000-0  25321-4 0  9996,2 56473  69.9981 178.6860 0003141 259.8612 100.2230 15.69926999  4093,6737.243,91.724,361.224,356.992,0.0
56473.0,STARLINK-5486,PAYLOAD,2023-06-03 11:32:49,15.69926153,0.0003063,69.9982,178.5053,279.0461,81.0388,1.3553e-05,1.417e-05,0.0,0 STARLINK-5486,1 56473U 23064AB  23154.48113074  .00001417  00000-0  13553-4 0  9997,2 56473  69.9982 178.5053 0003063 279.0461  81.0388 15.69926153  3750,6737.245,91.724,361.174,357.047,0.0
56473.0,STARLINK-5486,PAYLOAD,2023-06-03 19:11:35,15.6992489,0.0003417,69.9971,177.6111,272.9096,87.1709,1.2491e-05,1.289e-05,0.0,0 STARLINK-5486,1 56473U 23064AB  23154.79971360  .00001289  00000-0  12491-4 0  9998,2 56473  69.9971 177.6111 0003417 272.9096  87.1709 15.69924890  3808,6737.249,91.724,361.416,356.812,0.0
56473.0,STARLINK-5486,PAYLOAD,2023-06-04 08:57:21,15.69925367,0.0003704,69.9968,175.9987,269.4359,90.6412,1.5261e-05,1.623e-05,0.0,0 STARLINK-5486,1 56473U 23064AB  23155.37316323  .00001623  00000-0  15261-4 0  9995,2 56473  69.9968 175.9987 0003704 269.4359  90.6412 15.69925367  4247,6737.248,91.724,361.608,356.617,0.0
56473.0,STARLINK-5486,PAYLOAD,2023-06-04 13:32:36,15.69934441,0.0003854,69.9968,175.4612,271.4179,88.6575,-9.6688e-06,-1.376e-05,0.0,0 STARLINK-5486,1 56473U 23064AB  23155.56431024 -.00001376  00000-0 -96688-5 0  9992,2 56473  69.9968 175.4612 0003854 271.4179  88.6575 15.69934441  3920,6737.222,91.724,361.683,356.49,0.0
56473.0,STARLINK-5486,PAYLOAD,2023-06-04 15:04:21,15.69936774,0.0003849,69.9971,175.2823,272.0143,88.0612,-1.3052e-05,-1.783e-05,0.0,0 STARLINK-5486,1 56473U 23064AB  23155.62802547 -.00001783  00000-0 -13052-4 0  9996,2 56473  69.9971 175.2823 0003849 272.0143  88.0612 15.69936774  3936,6737.215,91.723,361.673,356.487,0.0
56473.0,STARLINK-5486,PAYLOAD,2023-06-05 04:50:08,15.69923162,0.0003538,69.9969,173.6699,266.6043,93.4747,6.0724e-06,5.17e-06,0.0,0 STARLINK-5486,1 56473U 23064AB  23156.20148427  .00000517  00000-0  60724-5 0  9992,2 56473  69.9969 173.6699 0003538 266.6043  93.4747 15.69923162  4374,6737.254,91.724,361.502,356.735,0.0
56473.0,STARLINK-5486,PAYLOAD,2023-06-05 12:28:53,15.69927873,0.0003605,69.9969,172.7741,269.9821,90.0961,1.0622e-05,1.065e-05,0.0,0 STARLINK-5486,1 56473U 23064AB  23156.52006399  .00001065  00000-0  10622-4 0  9998,2 56473  69.9969 172.7741 0003605 269.9821  90.0961 15.69927873  4078,6737.24,91.724,361.534,356.677,0.0
56473.0,STARLINK-5486,PAYLOAD,2023-06-05 18:35:54,15.69925069,0.0003463,69.9969,172.0577,267.001,93.0789,1.1629e-05,1.186e-05,0.0,0 STARLINK-5486,1 56473U 23064AB  23156.77493208  .00001186  00000-0  11629-4 0  9996,2 56473  69.9969 172.0577 0003463 267.0010  93.0789 15.69925069  4110,6737.248,91.724,361.446,356.78,0.0
56473.0,STARLINK-5486,PAYLOAD,2023-06-06 08:21:40,15.69925498,0.0003082,69.9979,170.4458,262.8202,97.2644,1.4227e-05,1.498e-05,0.0,0 STARLINK-5486,1 56473U 23064AB  23157.34838242  .00001498  00000-0  14227-4 0  9994,2 56473  69.9979 170.4458 0003082 262.8202  97.2644 15.69925498  4554,6737.247,91.724,361.189,357.036,0.0
56473.0,STARLINK-5486,PAYLOAD,2023-06-06 09:53:25,15.6992416,0.0003061,69.9979,170.2667,262.1406,97.9442,1.6164e-05,1.731e-05,0.0,0 STARLINK-5486,1 56473U 23064AB  23157.41209995  .00001731  00000-0  16164-4 0  9991,2 56473  69.9979 170.2667 0003061 262.1406  97.9442 15.69924160  4211,6737.251,91.724,361.178,357.054,0.0
56473.0,STARLINK-5486,PAYLOAD,2023-06-06 12:56:55,15.69922759,0.0003374,69.9982,169.9096,264.7893,95.2918,2.0663e-05,2.272e-05,0.0,0 STARLINK-5486,1 56473U 23064AB  23157.53953332  .00002272  00000-0  20663-4 0  9995,2 56473  69.9982 169.9096 0003374 264.7893  95.2918 15.69922759  4234,6737.255,91.724,361.393,356.847,0.0
56473.0,STARLINK-5486,PAYLOAD,2023-06-07 04:14:27,15.69921292,0.000337,69.9976,168.1162,264.293,95.7882,5.3058e-06,4.25e-06,0.0,0 STARLINK-5486,1 56473U 23064AB  23158.17670485  .00000425  00000-0  53058-5 0  9994,2 56473  69.9976 168.1162 0003370 264.2930  95.7882 15.69921292  4680,6737.259,91.724,361.395,356.854,0.0
56473.0,STARLINK-5486,PAYLOAD,2023-06-07 13:24:57,15.69928178,0.0003329,69.9978,167.0416,264.6033,95.4783,1.2102e-05,1.243e-05,0.0,0 STARLINK-5486,1 56473U 23064AB  23158.55899984  .00001243  00000-0  12102-4 0  9996,2 56473  69.9978 167.0416 0003329 264.6033  95.4783 15.69928178  4399,6737.239,91.724,361.347,356.862,0.0
56473.0,STARLINK-5486,PAYLOAD,2023-06-07 18:00:13,15.69925435,0.000331,69.9977,166.5046,263.8447,96.2372,1.2044e-05,1.236e-05,0.0,0 STARLINK-5486,1 56473U 23064AB  23158.75015180  .00001236  00000-0  12044-4 0  9993,2 56473  69.9977 166.5046 0003310 263.8447  96.2372 15.69925435  4421,6737.247,91.724,361.342,356.882,0.0
